SL-8 R/B                
1 19257U 88053B   26097.15157279  .00000262  00000+0  93390-4 0  9996
2 19257  74.0473  59.9977 0021277 235.3490 134.4551 14.38935396980698
COSMOS 1975             
1 19573U 88093A   26097.46859219  .00005623  00000+0  20116-3 0  9999
2 19573  82.5166  88.7788 0013271  73.4057 286.8639 15.28488582 23807
SL-14 R/B               
1 19574U 88093B   26097.23618096  .00000591  00000+0  65196-4 0  9998
2 19574  82.5346  15.2525 0019406 306.4916 205.6249 14.85692475  5256
SL-16 R/B               
1 19650U 88102B   26097.44138308  .00000301  00000+0  17600-3 0  9995
2 19650  70.9975  90.9981 0015572 319.8990  40.0983 14.16157375930966
INTERCOSMOS 24          
1 20261U 89080A   26097.47801118  .00000334  00000+0  96877-4 0  9990
2 20261  82.6016  85.6517 1187071 225.9474 123.7729 12.59592864670427
SL-14 R/B               
1 20262U 89080C   26097.60194698  .00000343  00000+0  93558-4 0  9997
2 20262  82.5940 154.6337 1230940 118.6978 254.3403 12.50520998663760
DELTA 1 R/B             
1 20323U 89089B   26097.52137811  .00000353  00000+0  95868-4 0  9996
2 20323  97.0682 300.3691 0069909  32.5254 328.0223 14.50688446899912
ARIANE 40 R/B           
1 20443U 90005H   26097.58265629  .00000311  00000+0  11238-3 0  9996
2 20443  98.3026 157.3746 0011348 115.9290 244.3070 14.39891223896960
DELTA 2 R/B(1)          
1 20453U 90008B   26097.40428903  .00071372  00000+0  73229-3 0  9990
2 20453  35.6035 345.8601 0076013 169.2487 190.9894 15.60097379930615
COSMOS 2058             
1 20465U 90010A   26097.51272516  .00004157  00000+0  24299-3 0  9995
2 20465  82.4727  19.0300 0008392 227.3269 132.7255 15.11616403946591
SL-14 R/B               
1 20466U 90010B   26097.48636825  .00000615  00000+0  71537-4 0  9992
2 20466  82.5012 240.3330 0019272 201.0313 159.0112 14.83599665932755
SL-14 R/B               
1 20511U 90018B   26097.53179140  .00000484  00000+0  57686-4 0  9992
2 20511  82.5246 196.1390 0016149   2.3679 357.7609 14.82175187926856
HST                     
1 20580U 90037B   26097.58311668  .00007491  00000+0  24304-3 0  9992
2 20580  28.4722 202.8292 0002346  89.0081 271.0783 15.29972965777743
SL-16 R/B               
1 20625U 90046B   26097.46872490 -.00000080  00000+0 -16753-4 0  9993
2 20625  70.9992 237.4675 0016613 262.3449  97.5787 14.15019366852468
COSMOS 2084             
1 20663U 90055A   26097.47782965  .00002825  00000+0  20721-3 0  9999
2 20663  62.7902 237.3756 0012421 200.0166 160.0449 15.05835350940656
SL-6 R/B(2)             
1 20666U 90055D   26097.56657123  .00001520  00000+0  12395-3 0  9998
2 20666  62.7822 155.6405 0029556 353.3895   6.6810 15.03739993942531
SL-8 R/B                
1 20775U 90078B   26097.46158688  .00011497  00000+0  34018-3 0  9995
2 20775  82.9045 225.4147 0357126 276.8560  79.2160 14.89914621813589
