[{"OBJECT_NAME":"SL-8 R/B","OBJECT_ID":"1988-053B","EPOCH":"2026-04-07T03:38:15.889056","MEAN_MOTION":14.38935396,"ECCENTRICITY":0.00212772,"INCLINATION":74.0473,"RA_OF_ASC_NODE":59.9977,"ARG_OF_PERICENTER":235.349,"MEAN_ANOMALY":134.4551,"EPHEMERIS_TYPE":0,"CLASSIFICATION_TYPE":"U","NORAD_CAT_ID":19257,"ELEMENT_SET_NO":999,"REV_AT_EPOCH":98069,"BSTAR":9.338988e-5,"MEAN_MOTION_DOT":2.62e-6,"MEAN_MOTION_DDOT":0},{"OBJECT_NAME":"COSMOS 1975","OBJECT_ID":"1988-093A","EPOCH":"2026-04-07T11:14:46.365216","MEAN_MOTION":15.28488582,"ECCENTRICITY":0.00132716,"INCLINATION":82.5166,"RA_OF_ASC_NODE":88.7788,"ARG_OF_PERICENTER":73.4057,"MEAN_ANOMALY":286.8639,"EPHEMERIS_TYPE":0,"CLASSIFICATION_TYPE":"U","NORAD_CAT_ID":19573,"ELEMENT_SET_NO":999,"REV_AT_EPOCH":2380,"BSTAR":0.00020115996,"MEAN_MOTION_DOT":5.623e-5,"MEAN_MOTION_DDOT":0},{"OBJECT_NAME":"SL-14 R/B","OBJECT_ID":"1988-093B","EPOCH":"2026-04-07T05:40:06.034944","MEAN_MOTION":14.85692475,"ECCENTRICITY":0.00194061,"INCLINATION":82.5346,"RA_OF_ASC_NODE":15.2525,"ARG_OF_PERICENTER":306.4916,"MEAN_ANOMALY":205.6249,"EPHEMERIS_TYPE":0,"CLASSIFICATION_TYPE":"U","NORAD_CAT_ID":19574,"ELEMENT_SET_NO":999,"REV_AT_EPOCH":525,"BSTAR":6.519648e-5,"MEAN_MOTION_DOT":5.91e-6,"MEAN_MOTION_DDOT":0},{"OBJECT_NAME":"SL-16 R/B","OBJECT_ID":"1988-102B","EPOCH":"2026-04-07T10:35:35.498112","MEAN_MOTION":14.16157375,"ECCENTRICITY":0.00155728,"INCLINATION":70.9975,"RA_OF_ASC_NODE":90.9981,"ARG_OF_PERICENTER":319.899,"MEAN_ANOMALY":40.0983,"EPHEMERIS_TYPE":0,"CLASSIFICATION_TYPE":"U","NORAD_CAT_ID":19650,"ELEMENT_SET_NO":999,"REV_AT_EPOCH":93096,"BSTAR":0.00017599854,"MEAN_MOTION_DOT":3.01e-6,"MEAN_MOTION_DDOT":0},{"OBJECT_NAME":"INTERCOSMOS 24","OBJECT_ID":"1989-080A","EPOCH":"2026-04-07T11:28:20.165952","MEAN_MOTION":12.59592864,"ECCENTRICITY":0.11870718,"INCLINATION":82.6016,"RA_OF_ASC_NODE":85.6517,"ARG_OF_PERICENTER":225.9474,"MEAN_ANOMALY":123.7729,"EPHEMERIS_TYPE":0,"CLASSIFICATION_TYPE":"U","NORAD_CAT_ID":20261,"ELEMENT_SET_NO":999,"REV_AT_EPOCH":67042,"BSTAR":9.6877339e-5,"MEAN_MOTION_DOT":3.34e-6,"MEAN_MOTION_DDOT":0},{"OBJECT_NAME":"SL-14 R/B","OBJECT_ID":"1989-080C","EPOCH":"2026-04-07T14:26:48.219072","MEAN_MOTION":12.50520998,"ECCENTRICITY":0.12309401,"INCLINATION":82.594,"RA_OF_ASC_NODE":154.6337,"ARG_OF_PERICENTER":118.6978,"MEAN_ANOMALY":254.3403,"EPHEMERIS_TYPE":0,"CLASSIFICATION_TYPE":"U","NORAD_CAT_ID":20262,"ELEMENT_SET_NO":999,"REV_AT_EPOCH":66376,"BSTAR":9.3557865e-5,"MEAN_MOTION_DOT":3.43e-6,"MEAN_MOTION_DDOT":0},{"OBJECT_NAME":"DELTA 1 R/B","OBJECT_ID":"1989-089B","EPOCH":"2026-04-07T12:30:47.068704","MEAN_MOTION":14.50688446,"ECCENTRICITY":0.00699093,"INCLINATION":97.0682,"RA_OF_ASC_NODE":300.3691,"ARG_OF_PERICENTER":32.5254,"MEAN_ANOMALY":328.0223,"EPHEMERIS_TYPE":0,"CLASSIFICATION_TYPE":"U","NORAD_CAT_ID":20323,"ELEMENT_SET_NO":999,"REV_AT_EPOCH":89991,"BSTAR":9.586831e-5,"MEAN_MOTION_DOT":3.53e-6,"MEAN_MOTION_DDOT":0},{"OBJECT_NAME":"ARIANE 40 R/B","OBJECT_ID":"1990-005H","EPOCH":"2026-04-07T13:59:01.503456","MEAN_MOTION":14.39891223,"ECCENTRICITY":0.0011348,"INCLINATION":98.3026,"RA_OF_ASC_NODE":157.3746,"ARG_OF_PERICENTER":115.929,"MEAN_ANOMALY":244.307,"EPHEMERIS_TYPE":0,"CLASSIFICATION_TYPE":"U","NORAD_CAT_ID":20443,"ELEMENT_SET_NO":999,"REV_AT_EPOCH":89696,"BSTAR":0.00011237992,"MEAN_MOTION_DOT":3.11e-6,"MEAN_MOTION_DDOT":0},{"OBJECT_NAME":"DELTA 2 R/B(1)","OBJECT_ID":"1990-008B","EPOCH":"2026-04-07T09:42:10.572192","MEAN_MOTION":15.60097379,"ECCENTRICITY":0.00760137,"INCLINATION":35.6035,"RA_OF_ASC_NODE":345.8601,"ARG_OF_PERICENTER":169.2487,"MEAN_ANOMALY":190.9894,"EPHEMERIS_TYPE":0,"CLASSIFICATION_TYPE":"U","NORAD_CAT_ID":20453,"ELEMENT_SET_NO":999,"REV_AT_EPOCH":93061,"BSTAR":0.00073228948,"MEAN_MOTION_DOT":0.00071372,"MEAN_MOTION_DDOT":0},{"OBJECT_NAME":"COSMOS 2058","OBJECT_ID":"1990-010A","EPOCH":"2026-04-07T12:18:19.453824","MEAN_MOTION":15.11616403,"ECCENTRICITY":0.00083925,"INCLINATION":82.4727,"RA_OF_ASC_NODE":19.03,"ARG_OF_PERICENTER":227.3269,"MEAN_ANOMALY":132.7255,"EPHEMERIS_TYPE":0,"CLASSIFICATION_TYPE":"U","NORAD_CAT_ID":20465,"ELEMENT_SET_NO":999,"REV_AT_EPOCH":94659,"BSTAR":0.00024299239,"MEAN_MOTION_DOT":4.157e-5,"MEAN_MOTION_DDOT":0},{"OBJECT_NAME":"SL-14 R/B","OBJECT_ID":"1990-010B","EPOCH":"2026-04-07T11:40:22.216800","MEAN_MOTION":14.83599665,"ECCENTRICITY":0.0019272,"INCLINATION":82.5012,"RA_OF_ASC_NODE":240.333,"ARG_OF_PERICENTER":201.0313,"MEAN_ANOMALY":159.0112,"EPHEMERIS_TYPE":0,"CLASSIFICATION_TYPE":"U","NORAD_CAT_ID":20466,"ELEMENT_SET_NO":999,"REV_AT_EPOCH":93275,"BSTAR":7.1537441e-5,"MEAN_MOTION_DOT":6.15e-6,"MEAN_MOTION_DDOT":0},{"OBJECT_NAME":"SL-14 R/B","OBJECT_ID":"1990-018B","EPOCH":"2026-04-07T12:45:46.776960","MEAN_MOTION":14.82175187,"ECCENTRICITY":0.0016149,"INCLINATION":82.5246,"RA_OF_ASC_NODE":196.139,"ARG_OF_PERICENTER":2.3679,"MEAN_ANOMALY":357.7609,"EPHEMERIS_TYPE":0,"CLASSIFICATION_TYPE":"U","NORAD_CAT_ID":20511,"ELEMENT_SET_NO":999,"REV_AT_EPOCH":92685,"BSTAR":5.7685709e-5,"MEAN_MOTION_DOT":4.84e-6,"MEAN_MOTION_DDOT":0},{"OBJECT_NAME":"HST","OBJECT_ID":"1990-037B","EPOCH":"2026-04-07T13:59:41.281152","MEAN_MOTION":15.29972965,"ECCENTRICITY":0.00023463,"INCLINATION":28.4722,"RA_OF_ASC_NODE":202.8292,"ARG_OF_PERICENTER":89.0081,"MEAN_ANOMALY":271.0783,"EPHEMERIS_TYPE":0,"CLASSIFICATION_TYPE":"U","NORAD_CAT_ID":20580,"ELEMENT_SET_NO":999,"REV_AT_EPOCH":77774,"BSTAR":0.00024304218,"MEAN_MOTION_DOT":7.491e-5,"MEAN_MOTION_DDOT":0},{"OBJECT_NAME":"SL-16 R/B","OBJECT_ID":"1990-046B","EPOCH":"2026-04-07T11:14:57.831360","MEAN_MOTION":14.15019366,"ECCENTRICITY":0.00166136,"INCLINATION":70.9992,"RA_OF_ASC_NODE":237.4675,"ARG_OF_PERICENTER":262.3449,"MEAN_ANOMALY":97.5787,"EPHEMERIS_TYPE":0,"CLASSIFICATION_TYPE":"U","NORAD_CAT_ID":20625,"ELEMENT_SET_NO":999,"REV_AT_EPOCH":85246,"BSTAR":-1.6752675e-5,"MEAN_MOTION_DOT":-8.0e-7,"MEAN_MOTION_DDOT":0},{"OBJECT_NAME":"COSMOS 2084","OBJECT_ID":"1990-055A","EPOCH":"2026-04-07T11:28:04.481760","MEAN_MOTION":15.0583535,"ECCENTRICITY":0.0012421,"INCLINATION":62.7902,"RA_OF_ASC_NODE":237.3756,"ARG_OF_PERICENTER":200.0166,"MEAN_ANOMALY":160.0449,"EPHEMERIS_TYPE":0,"CLASSIFICATION_TYPE":"U","NORAD_CAT_ID":20663,"ELEMENT_SET_NO":999,"REV_AT_EPOCH":94065,"BSTAR":0.00020721278,"MEAN_MOTION_DOT":2.825e-5,"MEAN_MOTION_DDOT":0},{"OBJECT_NAME":"SL-6 R/B(2)","OBJECT_ID":"1990-055D","EPOCH":"2026-04-07T13:35:51.754272","MEAN_MOTION":15.03739993,"ECCENTRICITY":0.00295561,"INCLINATION":62.7822,"RA_OF_ASC_NODE":155.6405,"ARG_OF_PERICENTER":353.3895,"MEAN_ANOMALY":6.681,"EPHEMERIS_TYPE":0,"CLASSIFICATION_TYPE":"U","NORAD_CAT_ID":20666,"ELEMENT_SET_NO":999,"REV_AT_EPOCH":94253,"BSTAR":0.00012395225,"MEAN_MOTION_DOT":1.52e-5,"MEAN_MOTION_DDOT":0},{"OBJECT_NAME":"SL-8 R/B","OBJECT_ID":"1990-078B","EPOCH":"2026-04-07T11:04:41.106432","MEAN_MOTION":14.89914621,"ECCENTRICITY":0.03571261,"INCLINATION":82.9045,"RA_OF_ASC_NODE":225.4147,"ARG_OF_PERICENTER":276.856,"MEAN_ANOMALY":79.216,"EPHEMERIS_TYPE":0,"CLASSIFICATION_TYPE":"U","NORAD_CAT_ID":20775,"ELEMENT_SET_NO":999,"REV_AT_EPOCH":81358,"BSTAR":0.00034017674,"MEAN_MOTION_DOT":0.00011497,"MEAN_MOTION_DDOT":0}]
